{"type": "FeatureCollection", "features": [ {"type": "Feature", "properties": {"norad_id": 66836, "name": "STARLINK-35838", "group": "last-30-days", "lat": 63.594018347767346, "lon": -40.98438489153311, "alt_km": 373.26912684082436, "timestamp": "2025-12-17T04:57:43.204157+00:00", "meta": {"OBJECT_NAME": "STARLINK-35838", "OBJECT_ID": "2025-280R", "EPOCH": "2025-12-16T22:00:03.000096", "MEAN_MOTION": 15.64618529, "ECCENTRICITY": 0.00033641, "INCLINATION": 69.9991, "RA_OF_ASC_NODE": 187.0115, "ARG_OF_PERICENTER": 272.7323, "MEAN_ANOMALY": 2.2554, "EPHEMERIS_TYPE": 0, "CLASSIFICATION_TYPE": "U", "NORAD_CAT_ID": 66836, "ELEMENT_SET_NO": 999, "REV_AT_EPOCH": 356, "BSTAR": -0.023021707, "MEAN_MOTION_DOT": -0.01971371, "MEAN_MOTION_DDOT": 0}, "tle": {"line1": "1 66836U 25280R   25350.91670139 -.01971371  00000+0 -23022-1 0  9997", "line2": "2 66836  69.9991 187.0115 0003364 272.7323   2.2554 15.64618529  3568"}}, "geometry": {"type": "Point", "coordinates": [-40.98438489153311, 63.594018347767346]}}, {"type": "Feature", "properties": {"norad_id": 66837, "name": "STARLINK-35729", "group": "last-30-days", "lat": 62.33315980636996, "lon": -37.80713592194071, "alt_km": 373.38147680554175, "timestamp": "2025-12-17T04:57:43.204166+00:00", "meta": {"OBJECT_NAME": "STARLINK-35729", "OBJECT_ID": "2025-280S", "EPOCH": "2025-12-16T22:00:03.000096", "MEAN_MOTION": 15.64610127, "ECCENTRICITY": 0.00033793, "INCLINATION": 69.9995, "RA_OF_ASC_NODE": 187.0087, "ARG_OF_PERICENTER": 272.7516, "MEAN_ANOMALY": 4.1541, "EPHEMERIS_TYPE": 0, "CLASSIFICATION_TYPE": "U", "NORAD_CAT_ID": 66837, "ELEMENT_SET_NO": 999, "REV_AT_EPOCH": 356, "BSTAR": -0.022806441, "MEAN_MOTION_DOT": -0.01954531, "MEAN_MOTION_DDOT": 0}, "tle": {"line1": "1 66837U 25280S   25350.91670139 -.01954531  00000+0 -22806-1 0  9996", "line2": "2 66837  69.9995 187.0087 0003379 272.7516   4.1541 15.64610127  3564"}}, "geometry": {"type": "Point", "coordinates": [-37.80713592194071, 62.33315980636996]}}, {"type": "Feature", "properties": {"norad_id": 66838, "name": "STARLINK-35886", "group": "last-30-days", "lat": 59.616853716816195, "lon": -32.211478697823715, "alt_km": 373.575507400009, "timestamp": "2025-12-17T04:57:43.204175+00:00", "meta": {"OBJECT_NAME": "STARLINK-35886", "OBJECT_ID": "2025-280T", "EPOCH": "2025-12-16T22:00:03.000096", "MEAN_MOTION": 15.64616116, "ECCENTRICITY": 0.00032749, "INCLINATION": 69.9996, "RA_OF_ASC_NODE": 187.0041, "ARG_OF_PERICENTER": 272.5175, "MEAN_ANOMALY": 8.2223, "EPHEMERIS_TYPE": 0, "CLASSIFICATION_TYPE": "U", "NORAD_CAT_ID": 66838, "ELEMENT_SET_NO": 999, "REV_AT_EPOCH": 356, "BSTAR": -0.022997714, "MEAN_MOTION_DOT": -0.01969308, "MEAN_MOTION_DDOT": 0}, "tle": {"line1": "1 66838U 25280T   25350.91670139 -.01969308  00000+0 -22998-1 0  9997", "line2": "2 66838  69.9996 187.0041 0003274 272.5175   8.2223 15.64616116  3565"}}, "geometry": {"type": "Point", "coordinates": [-32.211478697823715, 59.616853716816195]}}, {"type": "Feature", "properties": {"norad_id": 66839, "name": "STARLINK-35717", "group": "last-30-days", "lat": 61.003808353753584, "lon": -34.890443502860954, "alt_km": 373.5693445063707, "timestamp": "2025-12-17T04:57:43.204184+00:00", "meta": {"OBJECT_NAME": "STARLINK-35717", "OBJECT_ID": "2025-280U", "EPOCH": "2025-12-16T22:00:03.000096", "MEAN_MOTION": 15.64616814, "ECCENTRICITY": 0.00034499, "INCLINATION": 69.9991, "RA_OF_ASC_NODE": 187.0064, "ARG_OF_PERICENTER": 273.3649, "MEAN_ANOMALY": 5.4568, "EPHEMERIS_TYPE": 0, "CLASSIFICATION_TYPE": "U", "NORAD_CAT_ID": 66839, "ELEMENT_SET_NO": 999, "REV_AT_EPOCH": 356, "BSTAR": -0.023004527, "MEAN_MOTION_DOT": -0.01970034, "MEAN_MOTION_DDOT": 0}, "tle": {"line1": "1 66839U 25280U   25350.91670139 -.01970034  00000+0 -23005-1 0  9996", "line2": "2 66839  69.9991 187.0064 0003449 273.3649   5.4568 15.64616814  3561"}}, "geometry": {"type": "Point", "coordinates": [-34.890443502860954, 61.003808353753584]}}, {"type": "Feature", "properties": {"norad_id": 66840, "name": "STARLINK-35837", "group": "last-30-days", "lat": 58.180807514507585, "lon": -29.752696006141356, "alt_km": 373.65993330741185, "timestamp": "2025-12-17T04:57:43.204195+00:00", "meta": {"OBJECT_NAME": "STARLINK-35837", "OBJECT_ID": "2025-280V", "EPOCH": "2025-12-16T22:00:03.000096", "MEAN_MOTION": 15.6461397, "ECCENTRICITY": 0.00032354, "INCLINATION": 69.9991, "RA_OF_ASC_NODE": 187.0023, "ARG_OF_PERICENTER": 271.0253, "MEAN_ANOMALY": 11.6301, "EPHEMERIS_TYPE": 0, "CLASSIFICATION_TYPE": "U", "NORAD_CAT_ID": 66840, "ELEMENT_SET_NO": 999, "REV_AT_EPOCH": 356, "BSTAR": -0.022909394, "MEAN_MOTION_DOT": -0.01962451, "MEAN_MOTION_DDOT": 0}, "tle": {"line1": "1 66840U 25280V   25350.91670139 -.01962451  00000+0 -22909-1 0  9994", "line2": "2 66840  69.9991 187.0023 0003235 271.0253  11.6301 15.64613970  3561"}}, "geometry": {"type": "Point", "coordinates": [-29.752696006141356, 58.180807514507585]}}, {"type": "Feature", "properties": {"norad_id": 66841, "name": "STARLINK-35715", "group": "last-30-days", "lat": 56.700787336989094, "lon": -27.48709309705157, "alt_km": 373.9484170786445, "timestamp": "2025-12-17T04:57:43.204206+00:00", "meta": {"OBJECT_NAME": "STARLINK-35715", "OBJECT_ID": "2025-280W", "EPOCH": "2025-12-16T22:00:03.000096", "MEAN_MOTION": 15.64615629, "ECCENTRICITY": 0.00034175, "INCLINATION": 69.9989, "RA_OF_ASC_NODE": 187, "ARG_OF_PERICENTER": 272.3345, "MEAN_ANOMALY": 12.2364, "EPHEMERIS_TYPE": 0, "CLASSIFICATION_TYPE": "U", "NORAD_CAT_ID": 66841, "ELEMENT_SET_NO": 999, "REV_AT_EPOCH": 356, "BSTAR": -0.022951469, "MEAN_MOTION_DOT": -0.01965914, "MEAN_MOTION_DDOT": 0}, "tle": {"line1": "1 66841U 25280W   25350.91670139 -.01965914  00000+0 -22951-1 0  9999", "line2": "2 66841  69.9989 187.0000 0003417 272.3345  12.2364 15.64615629  3561"}}, "geometry": {"type": "Point", "coordinates": [-27.48709309705157, 56.700787336989094]}}, {"type": "Feature", "properties": {"norad_id": 66842, "name": "STARLINK-35769", "group": "last-30-days", "lat": 55.18238751016652, "lon": -25.394008951017796, "alt_km": 374.09260663814894, "timestamp": "2025-12-17T04:57:43.204214+00:00", "meta": {"OBJECT_NAME": "STARLINK-35769", "OBJECT_ID": "2025-280X", "EPOCH": "2025-12-16T22:00:03.000096", "MEAN_MOTION": 15.64616206, "ECCENTRICITY": 0.00033686, "INCLINATION": 69.9991, "RA_OF_ASC_NODE": 186.9977, "ARG_OF_PERICENTER": 273.1402, "MEAN_ANOMALY": 13.3467, "EPHEMERIS_TYPE": 0, "CLASSIFICATION_TYPE": "U", "NORAD_CAT_ID": 66842, "ELEMENT_SET_NO": 999, "REV_AT_EPOCH": 356, "BSTAR": -0.02297473, "MEAN_MOTION_DOT": -0.01967666, "MEAN_MOTION_DDOT": 0}, "tle": {"line1": "1 66842U 25280X   25350.91670139 -.01967666  00000+0 -22975-1 0  9992", "line2": "2 66842  69.9991 186.9977 0003368 273.1402  13.3467 15.64616206  3562"}}, "geometry": {"type": "Point", "coordinates": [-25.394008951017796, 55.18238751016652]}}, {"type": "Feature", "properties": {"norad_id": 66843, "name": "STARLINK-35997", "group": "last-30-days", "lat": 52.049524459311094, "lon": -21.6586225155713, "alt_km": 374.40238785620204, "timestamp": "2025-12-17T04:57:43.204223+00:00", "meta": {"OBJECT_NAME": "STARLINK-35997", "OBJECT_ID": "2025-280Y", "EPOCH": "2025-12-16T22:00:03.000096", "MEAN_MOTION": 15.64617933, "ECCENTRICITY": 0.00033477, "INCLINATION": 69.9992, "RA_OF_ASC_NODE": 186.9922, "ARG_OF_PERICENTER": 272.1654, "MEAN_ANOMALY": 18.155, "EPHEMERIS_TYPE": 0, "CLASSIFICATION_TYPE": "U", "NORAD_CAT_ID": 66843, "ELEMENT_SET_NO": 999, "REV_AT_EPOCH": 356, "BSTAR": -0.023014802, "MEAN_MOTION_DOT": -0.01970792, "MEAN_MOTION_DDOT": 0}, "tle": {"line1": "1 66843U 25280Y   25350.91670139 -.01970792  00000+0 -23015-1 0  9993", "line2": "2 66843  69.9992 186.9922 0003347 272.1654  18.1550 15.64617933  3563"}}, "geometry": {"type": "Point", "coordinates": [-21.6586225155713, 52.049524459311094]}}, {"type": "Feature", "properties": {"norad_id": 66844, "name": "STARLINK-36073", "group": "last-30-days", "lat": 53.62958204825364, "lon": -23.455234182149276, "alt_km": 374.25799325628304, "timestamp": "2025-12-17T04:57:43.204233+00:00", "meta": {"OBJECT_NAME": "STARLINK-36073", "OBJECT_ID": "2025-280Z", "EPOCH": "2025-12-16T22:00:03.000096", "MEAN_MOTION": 15.64617989, "ECCENTRICITY": 0.00033746, "INCLINATION": 69.9993, "RA_OF_ASC_NODE": 186.9952, "ARG_OF_PERICENTER": 272.5172, "MEAN_ANOMALY": 15.8886, "EPHEMERIS_TYPE": 0, "CLASSIFICATION_TYPE": "U", "NORAD_CAT_ID": 66844, "ELEMENT_SET_NO": 999, "REV_AT_EPOCH": 356, "BSTAR": -0.023054308, "MEAN_MOTION_DOT": -0.01973804, "MEAN_MOTION_DDOT": 0}, "tle": {"line1": "1 66844U 25280Z   25350.91670139 -.01973804  00000+0 -23054-1 0  9994", "line2": "2 66844  69.9993 186.9952 0003374 272.5172  15.8886 15.64617989  3564"}}, "geometry": {"type": "Point", "coordinates": [-23.455234182149276, 53.62958204825364]}}, {"type": "Feature", "properties": {"norad_id": 66845, "name": "STARLINK-36068", "group": "last-30-days", "lat": 47.16639701127805, "lon": -16.95702024063434, "alt_km": 375.04602658301246, "timestamp": "2025-12-17T04:57:43.204244+00:00", "meta": {"OBJECT_NAME": "STARLINK-36068", "OBJECT_ID": "2025-280AA", "EPOCH": "2025-12-16T22:00:03.000096", "MEAN_MOTION": 15.64612811, "ECCENTRICITY": 0.00034241, "INCLINATION": 69.9991, "RA_OF_ASC_NODE": 186.9855, "ARG_OF_PERICENTER": 273.6646, "MEAN_ANOMALY": 22.4071, "EPHEMERIS_TYPE": 0, "CLASSIFICATION_TYPE": "U", "NORAD_CAT_ID": 66845, "ELEMENT_SET_NO": 999, "REV_AT_EPOCH": 357, "BSTAR": -0.022927615, "MEAN_MOTION_DOT": -0.01963922, "MEAN_MOTION_DDOT": 0}, "tle": {"line1": "1 66845U 25280AA  25350.91670139 -.01963922  00000+0 -22928-1 0  9994", "line2": "2 66845  69.9991 186.9855 0003424 273.6646  22.4071 15.64612811  3579"}}, "geometry": {"type": "Point", "coordinates": [-16.95702024063434, 47.16639701127805]}}]}